{
  "links" : {
    "next" : "https://api.nasa.gov/neo/rest/v1/feed?start_date=2016-04-16&end_date=2016-04-16&detailed=true&api_key=t0TVs3DtDT2H8Oy2Zy8m2eVrNsAVKAexjcZXUckd",
    "prev" : "https://api.nasa.gov/neo/rest/v1/feed?start_date=2016-04-14&end_date=2016-04-14&detailed=true&api_key=t0TVs3DtDT2H8Oy2Zy8m2eVrNsAVKAexjcZXUckd",
    "self" : "https://api.nasa.gov/neo/rest/v1/feed?start_date=2016-04-15&end_date=2016-04-15&detailed=true&api_key=t0TVs3DtDT2H8Oy2Zy8m2eVrNsAVKAexjcZXUckd"
  },
  "element_count" : 10,
  "near_earth_objects" : {
    "2016-04-15" : [ {
      "links" : {
        "self" : "https://api.nasa.gov/neo/rest/v1/neo/3751828?api_key=t0TVs3DtDT2H8Oy2Zy8m2eVrNsAVKAexjcZXUckd"
      },
      "neo_reference_id" : "3751828",
      "name" : "(2016 GC221)",
      "nasa_jpl_url" : "http://ssd.jpl.nasa.gov/sbdb.cgi?sstr=3751828",
      "absolute_magnitude_h" : 24.8,
      "estimated_diameter" : {
        "kilometers" : {
          "estimated_diameter_min" : 0.0291443905,
          "estimated_diameter_max" : 0.0651688382
        },
        "meters" : {
          "estimated_diameter_min" : 29.1443904535,
          "estimated_diameter_max" : 65.1688382168
        },
        "miles" : {
          "estimated_diameter_min" : 0.018109479,
          "estimated_diameter_max" : 0.0404940262
        },
        "feet" : {
          "estimated_diameter_min" : 95.6180819754,
          "estimated_diameter_max" : 213.8085311752
        }
      },
      "is_potentially_hazardous_asteroid" : false,
      "close_approach_data" : [ {
        "close_approach_date" : "2016-04-15",
        "epoch_date_close_approach" : 1460703600000,
        "relative_velocity" : {
          "kilometers_per_second" : "13.6830398064",
          "kilometers_per_hour" : "49258.9433030443",
          "miles_per_hour" : "30607.5917429388"
        },
        "miss_distance" : {
          "astronomical" : "0.0344192776",
          "lunar" : "13.3890981674",
          "kilometers" : "5149050.5",
          "miles" : "3199471.5"
        },
        "orbiting_body" : "Earth"
      } ],
      "orbital_data" : {
        "orbit_id" : "6",
        "orbit_determination_date" : "2017-04-06 08:26:31",
        "orbit_uncertainty" : "7",
        "minimum_orbit_intersection" : ".0187724",
        "jupiter_tisserand_invariant" : "5.841",
        "epoch_osculation" : "2458000.5",
        "eccentricity" : ".1641587381274776",
        "semi_major_axis" : "1.030904143921042",
        "inclination" : "25.28470094520837",
        "ascending_node_longitude" : "23.53951819960083",
        "orbital_period" : "382.3189765333383",
        "perihelion_distance" : ".8616722205245759",
        "perihelion_argument" : "279.7183444305167",
        "aphelion_distance" : "1.200136067317508",
        "perihelion_time" : "2457961.054110791731",
        "mean_anomaly" : "37.1431212851096",
        "mean_motion" : ".9416221063999628",
        "equinox" : "J2000"
      }
    }, {
      "links" : {
        "self" : "https://api.nasa.gov/neo/rest/v1/neo/3758923?api_key=t0TVs3DtDT2H8Oy2Zy8m2eVrNsAVKAexjcZXUckd"
      },
      "neo_reference_id" : "3758923",
      "name" : "(2016 RB1)",
      "nasa_jpl_url" : "http://ssd.jpl.nasa.gov/sbdb.cgi?sstr=3758923",
      "absolute_magnitude_h" : 28.3,
      "estimated_diameter" : {
        "kilometers" : {
          "estimated_diameter_min" : 0.0058150704,
          "estimated_diameter_max" : 0.0130028927
        },
        "meters" : {
          "estimated_diameter_min" : 5.8150703965,
          "estimated_diameter_max" : 13.0028927004
        },
        "miles" : {
          "estimated_diameter_min" : 0.0036133161,
          "estimated_diameter_max" : 0.0080796204
        },
        "feet" : {
          "estimated_diameter_min" : 19.0783155595,
          "estimated_diameter_max" : 42.6604104873
        }
      },
      "is_potentially_hazardous_asteroid" : false,
      "close_approach_data" : [ {
        "close_approach_date" : "2016-04-15",
        "epoch_date_close_approach" : 1460703600000,
        "relative_velocity" : {
          "kilometers_per_second" : "7.3201637295",
          "kilometers_per_hour" : "26352.5894261398",
          "miles_per_hour" : "16374.4742464811"
        },
        "miss_distance" : {
          "astronomical" : "0.3004662761",
          "lunar" : "116.8813781738",
          "kilometers" : "44949116",
          "miles" : "27930084"
        },
        "orbiting_body" : "Earth"
      } ],
      "orbital_data" : {
        "orbit_id" : "20",
        "orbit_determination_date" : "2017-04-06 08:24:13",
        "orbit_uncertainty" : "4",
        "minimum_orbit_intersection" : ".00028675",
        "jupiter_tisserand_invariant" : "6.748",
        "epoch_osculation" : "2458000.5",
        "eccentricity" : ".2808573509225696",
        "semi_major_axis" : ".8727262141642947",
        "inclination" : "1.804821239417797",
        "ascending_node_longitude" : "345.7291201013327",
        "orbital_period" : "297.7936676176396",
        "perihelion_distance" : ".6276146415734278",
        "perihelion_argument" : "135.5108988139382",
        "aphelion_distance" : "1.117837786755162",
        "perihelion_time" : "2458027.853529415295",
        "mean_anomaly" : "326.9325722461305",
        "mean_motion" : "1.208890715776508",
        "equinox" : "J2000"
      }
    }, {
      "links" : {
        "self" : "https://api.nasa.gov/neo/rest/v1/neo/3752516?api_key=t0TVs3DtDT2H8Oy2Zy8m2eVrNsAVKAexjcZXUckd"
      },
      "neo_reference_id" : "3752516",
      "name" : "(2016 HT6)",
      "nasa_jpl_url" : "http://ssd.jpl.nasa.gov/sbdb.cgi?sstr=3752516",
      "absolute_magnitude_h" : 25.7,
      "estimated_diameter" : {
        "kilometers" : {
          "estimated_diameter_min" : 0.0192555078,
          "estimated_diameter_max" : 0.0430566244
        },
        "meters" : {
          "estimated_diameter_min" : 19.2555078188,
          "estimated_diameter_max" : 43.0566244241
        },
        "miles" : {
          "estimated_diameter_min" : 0.0119648141,
          "estimated_diameter_max" : 0.0267541378
        },
        "feet" : {
          "estimated_diameter_min" : 63.1742402722,
          "estimated_diameter_max" : 141.2618956756
        }
      },
      "is_potentially_hazardous_asteroid" : false,
      "close_approach_data" : [ {
        "close_approach_date" : "2016-04-15",
        "epoch_date_close_approach" : 1460703600000,
        "relative_velocity" : {
          "kilometers_per_second" : "10.7543521764",
          "kilometers_per_hour" : "38715.6678349957",
          "miles_per_hour" : "24056.4103833616"
        },
        "miss_distance" : {
          "astronomical" : "0.0133874377",
          "lunar" : "5.2077131271",
          "kilometers" : "2002732.25",
          "miles" : "1244440.125"
        },
        "orbiting_body" : "Earth"
      } ],
      "orbital_data" : {
        "orbit_id" : "4",
        "orbit_determination_date" : "2017-04-06 08:26:19",
        "orbit_uncertainty" : "8",
        "minimum_orbit_intersection" : ".0126623",
        "jupiter_tisserand_invariant" : "5.321",
        "epoch_osculation" : "2457508.5",
        "eccentricity" : ".3767023713879293",
        "semi_major_axis" : "1.170914060259149",
        "inclination" : "3.509682830265946",
        "ascending_node_longitude" : "194.3693235381347",
        "orbital_period" : "462.7921229979465",
        "perihelion_distance" : ".7298279570680587",
        "perihelion_argument" : "282.2690600327411",
        "aphelion_distance" : "1.612000163450239",
        "perihelion_time" : "2457433.101653832244",
        "mean_anomaly" : "58.65139718575678",
        "mean_motion" : ".7778870514647835",
        "equinox" : "J2000"
      }
    } ]
  }
}